[{"OBJECT_NAME":"STARLINK-3639","OBJECT_ID":"2022-017X","EPOCH":"2026-02-05T17:35:03.907968","MEAN_MOTION":15.08847889,"ECCENTRICITY":0.0001402,"INCLINATION":53.2165,"RA_OF_ASC_NODE":132.582,"ARG_OF_PERICENTER":93.3364,"MEAN_ANOMALY":266.7789,"EPHEMERIS_TYPE":0,"CLASSIFICATION_TYPE":"U","NORAD_CAT_ID":51789,"ELEMENT_SET_NO":999,"REV_AT_EPOCH":21745,"BSTAR":0.00012419,"MEAN_MOTION_DOT":1.69e-5,"MEAN_MOTION_DDOT":0},{"OBJECT_NAME":"STARLINK-3631","OBJECT_ID":"2022-017Y","EPOCH":"2026-02-05T12:22:25.108032","MEAN_MOTION":15.08846504,"ECCENTRICITY":0.00013199,"INCLINATION":53.2166,"RA_OF_ASC_NODE":133.5567,"ARG_OF_PERICENTER":82.7434,"MEAN_ANOMALY":277.3708,"EPHEMERIS_TYPE":0,"CLASSIFICATION_TYPE":"U","NORAD_CAT_ID":51790,"ELEMENT_SET_NO":999,"REV_AT_EPOCH":21911,"BSTAR":7.3401411e-5,"MEAN_MOTION_DOT":8.81e-6,"MEAN_MOTION_DDOT":0},{"OBJECT_NAME":"STARLINK-3602","OBJECT_ID":"2022-017Z","EPOCH":"2026-02-05T15:49:05.214432","MEAN_MOTION":15.08845412,"ECCENTRICITY":0.0001368,"INCLINATION":53.2169,"RA_OF_ASC_NODE":132.9127,"ARG_OF_PERICENTER":92.8722,"MEAN_ANOMALY":267.2427,"EPHEMERIS_TYPE":0,"CLASSIFICATION_TYPE":"U","NORAD_CAT_ID":51791,"ELEMENT_SET_NO":999,"REV_AT_EPOCH":21908,"BSTAR":0.00015785,"MEAN_MOTION_DOT":2.226e-5,"MEAN_MOTION_DDOT":0},{"OBJECT_NAME":"STARLINK-3626","OBJECT_ID":"2022-017AA","EPOCH":"2026-02-05T16:57:58.604256","MEAN_MOTION":15.08844856,"ECCENTRICITY":0.000146,"INCLINATION":53.217,"RA_OF_ASC_NODE":132.6954,"ARG_OF_PERICENTER":87.28,"MEAN_ANOMALY":272.836,"EPHEMERIS_TYPE":0,"CLASSIFICATION_TYPE":"U","NORAD_CAT_ID":51792,"ELEMENT_SET_NO":999,"REV_AT_EPOCH":21914,"BSTAR":0.00016435,"MEAN_MOTION_DOT":2.329e-5,"MEAN_MOTION_DDOT":0},{"OBJECT_NAME":"STARLINK-3633","OBJECT_ID":"2022-017AB","EPOCH":"2026-02-05T16:25:25.377600","MEAN_MOTION":15.22158105,"ECCENTRICITY":0.0001169,"INCLINATION":53.22,"RA_OF_ASC_NODE":131.7151,"ARG_OF_PERICENTER":53.8806,"MEAN_ANOMALY":306.23,"EPHEMERIS_TYPE":0,"CLASSIFICATION_TYPE":"U","NORAD_CAT_ID":51793,"ELEMENT_SET_NO":999,"REV_AT_EPOCH":21915,"BSTAR":0.00048888,"MEAN_MOTION_DOT":0.00011044,"MEAN_MOTION_DDOT":0},{"OBJECT_NAME":"STARLINK-3573","OBJECT_ID":"2022-017AC","EPOCH":"2026-02-05T16:47:22.707168","MEAN_MOTION":15.08844304,"ECCENTRICITY":0.0001426,"INCLINATION":53.2171,"RA_OF_ASC_NODE":132.7296,"ARG_OF_PERICENTER":94.001,"MEAN_ANOMALY":266.1145,"EPHEMERIS_TYPE":0,"CLASSIFICATION_TYPE":"U","NORAD_CAT_ID":51794,"ELEMENT_SET_NO":999,"REV_AT_EPOCH":21909,"BSTAR":0.00012987,"MEAN_MOTION_DOT":1.78e-5,"MEAN_MOTION_DDOT":0},{"OBJECT_NAME":"STARLINK-3586","OBJECT_ID":"2022-017AD","EPOCH":"2026-02-05T18:54:35.233056","MEAN_MOTION":15.0884912,"ECCENTRICITY":0.0001389,"INCLINATION":53.2164,"RA_OF_ASC_NODE":132.5324,"ARG_OF_PERICENTER":82.8566,"MEAN_ANOMALY":277.2584,"EPHEMERIS_TYPE":0,"CLASSIFICATION_TYPE":"U","NORAD_CAT_ID":51795,"ELEMENT_SET_NO":999,"REV_AT_EPOCH":21910,"BSTAR":0.00014031,"MEAN_MOTION_DOT":1.946e-5,"MEAN_MOTION_DDOT":0},{"OBJECT_NAME":"STARLINK-3634","OBJECT_ID":"2022-017AG","EPOCH":"2026-02-05T16:26:10.716864","MEAN_MOTION":15.08842982,"ECCENTRICITY":0.0001471,"INCLINATION":53.2171,"RA_OF_ASC_NODE":132.7954,"ARG_OF_PERICENTER":106.1561,"MEAN_ANOMALY":253.9593,"EPHEMERIS_TYPE":0,"CLASSIFICATION_TYPE":"U","NORAD_CAT_ID":51798,"ELEMENT_SET_NO":999,"REV_AT_EPOCH":21913,"BSTAR":0.00011013,"MEAN_MOTION_DOT":1.465e-5,"MEAN_MOTION_DDOT":0},{"OBJECT_NAME":"STARLINK-3637","OBJECT_ID":"2022-017AH","EPOCH":"2026-02-05T16:42:05.028192","MEAN_MOTION":15.08852524,"ECCENTRICITY":0.0001666,"INCLINATION":53.2163,"RA_OF_ASC_NODE":132.7482,"ARG_OF_PERICENTER":78.9074,"MEAN_ANOMALY":281.2106,"EPHEMERIS_TYPE":0,"CLASSIFICATION_TYPE":"U","NORAD_CAT_ID":51799,"ELEMENT_SET_NO":999,"REV_AT_EPOCH":21909,"BSTAR":4.2535e-5,"MEAN_MOTION_DOT":3.89e-6,"MEAN_MOTION_DDOT":0},{"OBJECT_NAME":"STARLINK-3592","OBJECT_ID":"2022-017AK","EPOCH":"2026-02-05T07:04:28.217856","MEAN_MOTION":15.08837329,"ECCENTRICITY":0.000126,"INCLINATION":53.2172,"RA_OF_ASC_NODE":134.5472,"ARG_OF_PERICENTER":91.3877,"MEAN_ANOMALY":268.726,"EPHEMERIS_TYPE":0,"CLASSIFICATION_TYPE":"U","NORAD_CAT_ID":51801,"ELEMENT_SET_NO":999,"REV_AT_EPOCH":21903,"BSTAR":2.3656e-5,"MEAN_MOTION_DOT":8.9e-7,"MEAN_MOTION_DDOT":0},{"OBJECT_NAME":"STARLINK-3544","OBJECT_ID":"2022-017AM","EPOCH":"2026-02-05T06:48:34.347168","MEAN_MOTION":15.0883807,"ECCENTRICITY":0.0001192,"INCLINATION":53.2173,"RA_OF_ASC_NODE":134.599,"ARG_OF_PERICENTER":89.4386,"MEAN_ANOMALY":270.6743,"EPHEMERIS_TYPE":0,"CLASSIFICATION_TYPE":"U","NORAD_CAT_ID":51803,"ELEMENT_SET_NO":999,"REV_AT_EPOCH":21902,"BSTAR":5.4759e-5,"MEAN_MOTION_DOT":5.84e-6,"MEAN_MOTION_DDOT":0},{"OBJECT_NAME":"STARLINK-3601","OBJECT_ID":"2022-017AN","EPOCH":"2026-02-05T15:04:02.642304","MEAN_MOTION":15.08841639,"ECCENTRICITY":0.0001403,"INCLINATION":53.2173,"RA_OF_ASC_NODE":113.0515,"ARG_OF_PERICENTER":95.9596,"MEAN_ANOMALY":264.1556,"EPHEMERIS_TYPE":0,"CLASSIFICATION_TYPE":"U","NORAD_CAT_ID":51804,"ELEMENT_SET_NO":999,"REV_AT_EPOCH":21931,"BSTAR":6.2467e-5,"MEAN_MOTION_DOT":7.06e-6,"MEAN_MOTION_DDOT":0},{"OBJECT_NAME":"STARLINK-3605","OBJECT_ID":"2022-017AP","EPOCH":"2026-02-05T05:37:04.496448","MEAN_MOTION":15.08824868,"ECCENTRICITY":0.0001329,"INCLINATION":53.2178,"RA_OF_ASC_NODE":114.8939,"ARG_OF_PERICENTER":89.2784,"MEAN_ANOMALY":270.836,"EPHEMERIS_TYPE":0,"CLASSIFICATION_TYPE":"U","NORAD_CAT_ID":51805,"ELEMENT_SET_NO":999,"REV_AT_EPOCH":21934,"BSTAR":-4.8687e-5,"MEAN_MOTION_DOT":-1.062e-5,"MEAN_MOTION_DDOT":0},{"OBJECT_NAME":"STARLINK-3606","OBJECT_ID":"2022-017AR","EPOCH":"2026-02-05T12:18:26.193024","MEAN_MOTION":15.08846764,"ECCENTRICITY":0.0001375,"INCLINATION":53.2164,"RA_OF_ASC_NODE":123.5697,"ARG_OF_PERICENTER":84.258,"MEAN_ANOMALY":275.8569,"EPHEMERIS_TYPE":0,"CLASSIFICATION_TYPE":"U","NORAD_CAT_ID":51807,"ELEMENT_SET_NO":999,"REV_AT_EPOCH":21925,"BSTAR":0.00013549857,"MEAN_MOTION_DOT":1.87e-5,"MEAN_MOTION_DDOT":0},{"OBJECT_NAME":"STARLINK-3609","OBJECT_ID":"2022-017AS","EPOCH":"2026-02-05T15:08:00.872160","MEAN_MOTION":15.08845433,"ECCENTRICITY":0.0001405,"INCLINATION":53.2177,"RA_OF_ASC_NODE":123.0405,"ARG_OF_PERICENTER":86.8731,"MEAN_ANOMALY":273.2422,"EPHEMERIS_TYPE":0,"CLASSIFICATION_TYPE":"U","NORAD_CAT_ID":51808,"ELEMENT_SET_NO":999,"REV_AT_EPOCH":21912,"BSTAR":0.00017813,"MEAN_MOTION_DOT":2.549e-5,"MEAN_MOTION_DDOT":0},{"OBJECT_NAME":"STARLINK-3607","OBJECT_ID":"2022-017AT","EPOCH":"2026-02-05T12:07:50.255328","MEAN_MOTION":15.08842874,"ECCENTRICITY":0.00013737,"INCLINATION":53.2181,"RA_OF_ASC_NODE":123.5646,"ARG_OF_PERICENTER":92.9952,"MEAN_ANOMALY":267.1197,"EPHEMERIS_TYPE":0,"CLASSIFICATION_TYPE":"U","NORAD_CAT_ID":51809,"ELEMENT_SET_NO":999,"REV_AT_EPOCH":21920,"BSTAR":8.1912767e-5,"MEAN_MOTION_DOT":1.016e-5,"MEAN_MOTION_DDOT":0},{"OBJECT_NAME":"STARLINK-3613","OBJECT_ID":"2022-017AU","EPOCH":"2026-02-05T11:26:48.886944","MEAN_MOTION":15.08842922,"ECCENTRICITY":0.00012891,"INCLINATION":53.2172,"RA_OF_ASC_NODE":113.9503,"ARG_OF_PERICENTER":88.1752,"MEAN_ANOMALY":271.9388,"EPHEMERIS_TYPE":0,"CLASSIFICATION_TYPE":"U","NORAD_CAT_ID":51810,"ELEMENT_SET_NO":999,"REV_AT_EPOCH":21921,"BSTAR":0.00010287038,"MEAN_MOTION_DOT":1.35e-5,"MEAN_MOTION_DDOT":0}]
