STARLINK-3639           
1 51789U 22017X   26036.73268412  .00001690  00000+0  12419-3 0  9997
2 51789  53.2165 132.5820 0001402  93.3364 266.7789 15.08847889217452
STARLINK-3631           
1 51790U 22017Y   26036.51556838  .00000881  00000+0  73401-4 0  9997
2 51790  53.2166 133.5567 0001319  82.7434 277.3708 15.08846504219118
STARLINK-3602           
1 51791U 22017Z   26036.65908813  .00002226  00000+0  15785-3 0  9992
2 51791  53.2169 132.9127 0001368  92.8722 267.2427 15.08845412219082
STARLINK-3626           
1 51792U 22017AA  26036.70692829  .00002329  00000+0  16435-3 0  9993
2 51792  53.2170 132.6954 0001460  87.2800 272.8360 15.08844856219144
STARLINK-3633           
1 51793U 22017AB  26036.68432150  .00011044  00000+0  48888-3 0  9991
2 51793  53.2200 131.7151 0001169  53.8806 306.2300 15.22158105219157
STARLINK-3573           
1 51794U 22017AC  26036.69956837  .00001780  00000+0  12987-3 0  9993
2 51794  53.2171 132.7296 0001426  94.0010 266.1145 15.08844304219097
STARLINK-3586           
1 51795U 22017AD  26036.78790779  .00001946  00000+0  14031-3 0  9991
2 51795  53.2164 132.5324 0001389  82.8566 277.2584 15.08849120219102
STARLINK-3634           
1 51798U 22017AG  26036.68484626  .00001465  00000+0  11013-3 0  9997
2 51798  53.2171 132.7954 0001471 106.1561 253.9593 15.08842982219134
STARLINK-3637           
1 51799U 22017AH  26036.69589153  .00000389  00000+0  42535-4 0  9998
2 51799  53.2163 132.7482 0001666  78.9074 281.2106 15.08852524219095
STARLINK-3592           
1 51801U 22017AK  26036.29477104  .00000089  00000+0  23656-4 0  9990
2 51801  53.2172 134.5472 0001260  91.3877 268.7260 15.08837329219039
STARLINK-3544           
1 51803U 22017AM  26036.28373087  .00000584  00000+0  54759-4 0  9994
2 51803  53.2173 134.5990 0001192  89.4386 270.6743 15.08838070219025
STARLINK-3601           
1 51804U 22017AN  26036.62780836  .00000706  00000+0  62467-4 0  9998
2 51804  53.2173 113.0515 0001403  95.9596 264.1556 15.08841639219318
STARLINK-3605           
1 51805U 22017AP  26036.23407982 -.00001062  00000+0 -48687-4 0  9990
2 51805  53.2178 114.8939 0001329  89.2784 270.8360 15.08824868219340
STARLINK-3606           
1 51807U 22017AR  26036.51280316  .00001870  00000+0  13550-3 0  9998
2 51807  53.2164 123.5697 0001375  84.2580 275.8569 15.08846764219250
STARLINK-3609           
1 51808U 22017AS  26036.63056565  .00002549  00000+0  17813-3 0  9999
2 51808  53.2177 123.0405 0001405  86.8731 273.2422 15.08845433219125
STARLINK-3607           
1 51809U 22017AT  26036.50544277  .00001016  00000+0  81913-4 0  9999
2 51809  53.2181 123.5646 0001373  92.9952 267.1197 15.08842874219206
STARLINK-3613           
1 51810U 22017AU  26036.47695471  .00001350  00000+0  10287-3 0  9996
2 51810  53.2172 113.9503 0001289  88.1752 271.9388 15.08842922219214
